{
    "week": 293,
    "satellites": [
        {
            "Name": "BEIDOU-3 M24 (C46)",
            "Line1": "1 44542U 19061A   24325.23760197  .00000008  00000+0  00000+0 0  9993",
            "Line2": "2 44542  54.4250 202.0905 0008997  12.2945 347.8144  1.86229387 35101",
            "SatelliteNumber": "44542",
            "Classification": "U",
            "LaunchYear": "19",
            "LaunchNumber": "061",
            "PieceOfLaunch": "A",
            "EpochYear": "24",
            "EpochDay": 325.23760197,
            "FirstDerivativeMeanMotion": 8e-08,
            "SecondDerivativeMeanMotion": "00000+0",
            "BSTAR": "00000+0",
            "SetNumber": "999",
            "Inclination": 54.425,
            "RAAN": 202.0905,
            "Eccentricity": 0.0008997,
            "ArgumentOfPerigee": 12.2945,
            "MeanAnomaly": 347.8144,
            "MeanMotion": 1.86229387,
            "RevolutionNumber": "3510"
        },
        {
            "Name": "BEIDOU-3 M23 (C45)",
            "Line1": "1 44543U 19061B   24324.55670227  .00000016  00000+0  00000+0 0  9991",
            "Line2": "2 44543  54.4236 202.0820 0005675   7.6219 168.5716  1.86229595 35085",
            "SatelliteNumber": "44543",
            "Classification": "U",
            "LaunchYear": "19",
            "LaunchNumber": "061",
            "PieceOfLaunch": "B",
            "EpochYear": "24",
            "EpochDay": 324.55670227,
            "FirstDerivativeMeanMotion": 1.6e-07,
            "SecondDerivativeMeanMotion": "00000+0",
            "BSTAR": "00000+0",
            "SetNumber": "999",
            "Inclination": 54.4236,
            "RAAN": 202.082,
            "Eccentricity": 0.0005675,
            "ArgumentOfPerigee": 7.6219,
            "MeanAnomaly": 168.5716,
            "MeanMotion": 1.86229595,
            "RevolutionNumber": "3508"
        },
        {
            "Name": "BEIDOU-3 IGSO-3 (C40)",
            "Line1": "1 44709U 19073A   24325.30562826 -.00000198  00000+0  00000+0 0  9999",
            "Line2": "2 44709  55.7883 287.0690 0040286 190.8200 169.0360  1.00254601 18704",
            "SatelliteNumber": "44709",
            "Classification": "U",
            "LaunchYear": "19",
            "LaunchNumber": "073",
            "PieceOfLaunch": "A",
            "EpochYear": "24",
            "EpochDay": 325.30562826,
            "FirstDerivativeMeanMotion": -1.98e-06,
            "SecondDerivativeMeanMotion": "00000+0",
            "BSTAR": "00000+0",
            "SetNumber": "999",
            "Inclination": 55.7883,
            "RAAN": 287.069,
            "Eccentricity": 0.0040286,
            "ArgumentOfPerigee": 190.82,
            "MeanAnomaly": 169.036,
            "MeanMotion": 1.00254601,
            "RevolutionNumber": "1870"
        },
        {
            "Name": "BEIDOU-3 M22 (C44)",
            "Line1": "1 44793U 19078A   24325.08192275 -.00000077  00000+0  00000+0 0  9995",
            "Line2": "2 44793  54.4424 319.9411 0005317  10.8046 349.2104  1.86232038 33962",
            "SatelliteNumber": "44793",
            "Classification": "U",
            "LaunchYear": "19",
            "LaunchNumber": "078",
            "PieceOfLaunch": "A",
            "EpochYear": "24",
            "EpochDay": 325.08192275,
            "FirstDerivativeMeanMotion": -7.7e-07,
            "SecondDerivativeMeanMotion": "00000+0",
            "BSTAR": "00000+0",
            "SetNumber": "999",
            "Inclination": 54.4424,
            "RAAN": 319.9411,
            "Eccentricity": 0.0005317,
            "ArgumentOfPerigee": 10.8046,
            "MeanAnomaly": 349.2104,
            "MeanMotion": 1.86232038,
            "RevolutionNumber": "3396"
        },
        {
            "Name": "BEIDOU-3 M21 (C43)",
            "Line1": "1 44794U 19078B   24325.21130980 -.00000076  00000+0  00000+0 0  9995",
            "Line2": "2 44794  54.4159 319.9092 0003575 354.1630   5.8365  1.86232549 33961",
            "SatelliteNumber": "44794",
            "Classification": "U",
            "LaunchYear": "19",
            "LaunchNumber": "078",
            "PieceOfLaunch": "B",
            "EpochYear": "24",
            "EpochDay": 325.2113098,
            "FirstDerivativeMeanMotion": -7.6e-07,
            "SecondDerivativeMeanMotion": "00000+0",
            "BSTAR": "00000+0",
            "SetNumber": "999",
            "Inclination": 54.4159,
            "RAAN": 319.9092,
            "Eccentricity": 0.0003575,
            "ArgumentOfPerigee": 354.163,
            "MeanAnomaly": 5.8365,
            "MeanMotion": 1.86232549,
            "RevolutionNumber": "3396"
        },
        {
            "Name": "BEIDOU-3 M19 (C41)",
            "Line1": "1 44864U 19090A   24325.41986052 -.00000019  00000+0  00000+0 0  9995",
            "Line2": "2 44864  56.0582  81.8368 0016513 278.9170  53.0001  1.86231493 33549",
            "SatelliteNumber": "44864",
            "Classification": "U",
            "LaunchYear": "19",
            "LaunchNumber": "090",
            "PieceOfLaunch": "A",
            "EpochYear": "24",
            "EpochDay": 325.41986052,
            "FirstDerivativeMeanMotion": -1.9e-07,
            "SecondDerivativeMeanMotion": "00000+0",
            "BSTAR": "00000+0",
            "SetNumber": "999",
            "Inclination": 56.0582,
            "RAAN": 81.8368,
            "Eccentricity": 0.0016513,
            "ArgumentOfPerigee": 278.917,
            "MeanAnomaly": 53.0001,
            "MeanMotion": 1.86231493,
            "RevolutionNumber": "3354"
        },
        {
            "Name": "BEIDOU-3 M20 (C42)",
            "Line1": "1 44865U 19090B   24324.30547546 -.00000024  00000+0  00000+0 0  9990",
            "Line2": "2 44865  56.0590  81.9075 0013832 292.6106 101.8618  1.86231394 33511",
            "SatelliteNumber": "44865",
            "Classification": "U",
            "LaunchYear": "19",
            "LaunchNumber": "090",
            "PieceOfLaunch": "B",
            "EpochYear": "24",
            "EpochDay": 324.30547546,
            "FirstDerivativeMeanMotion": -2.4e-07,
            "SecondDerivativeMeanMotion": "00000+0",
            "BSTAR": "00000+0",
            "SetNumber": "999",
            "Inclination": 56.059,
            "RAAN": 81.9075,
            "Eccentricity": 0.0013832,
            "ArgumentOfPerigee": 292.6106,
            "MeanAnomaly": 101.8618,
            "MeanMotion": 1.86231394,
            "RevolutionNumber": "3351"
        },
        {
            "Name": "BEIDOU-3 G2 (C60)",
            "Line1": "1 45344U 20017A   24325.81148394 -.00000140  00000+0  00000+0 0  9998",
            "Line2": "2 45344   2.5327  35.0729 0004609 217.1165 180.2912  1.00271442 17528",
            "SatelliteNumber": "45344",
            "Classification": "U",
            "LaunchYear": "20",
            "LaunchNumber": "017",
            "PieceOfLaunch": "A",
            "EpochYear": "24",
            "EpochDay": 325.81148394,
            "FirstDerivativeMeanMotion": -1.4e-06,
            "SecondDerivativeMeanMotion": "00000+0",
            "BSTAR": "00000+0",
            "SetNumber": "999",
            "Inclination": 2.5327,
            "RAAN": 35.0729,
            "Eccentricity": 0.0004609,
            "ArgumentOfPerigee": 217.1165,
            "MeanAnomaly": 180.2912,
            "MeanMotion": 1.00271442,
            "RevolutionNumber": "1752"
        },
        {
            "Name": "BEIDOU-3 G3 (C61)",
            "Line1": "1 45807U 20040A   24325.55967615 -.00000353  00000+0  00000+0 0  9990",
            "Line2": "2 45807   1.0850  56.1522 0003226 298.3889  17.5211  1.00276483 16310",
            "SatelliteNumber": "45807",
            "Classification": "U",
            "LaunchYear": "20",
            "LaunchNumber": "040",
            "PieceOfLaunch": "A",
            "EpochYear": "24",
            "EpochDay": 325.55967615,
            "FirstDerivativeMeanMotion": -3.53e-06,
            "SecondDerivativeMeanMotion": "00000+0",
            "BSTAR": "00000+0",
            "SetNumber": "999",
            "Inclination": 1.085,
            "RAAN": 56.1522,
            "Eccentricity": 0.0003226,
            "ArgumentOfPerigee": 298.3889,
            "MeanAnomaly": 17.5211,
            "MeanMotion": 1.00276483,
            "RevolutionNumber": "1631"
        },
        {
            "Name": "BEIDOU-3 G4 (C62)",
            "Line1": "1 56564U 23066A   24325.22966245 -.00000110  00000+0  00000+0 0  9996",
            "Line2": "2 56564   1.7364 288.9966 0004664 259.5618 113.9258  1.00271493  5644",
            "SatelliteNumber": "56564",
            "Classification": "U",
            "LaunchYear": "23",
            "LaunchNumber": "066",
            "PieceOfLaunch": "A",
            "EpochYear": "24",
            "EpochDay": 325.22966245,
            "FirstDerivativeMeanMotion": -1.1e-06,
            "SecondDerivativeMeanMotion": "00000+0",
            "BSTAR": "00000+0",
            "SetNumber": "999",
            "Inclination": 1.7364,
            "RAAN": 288.9966,
            "Eccentricity": 0.0004664,
            "ArgumentOfPerigee": 259.5618,
            "MeanAnomaly": 113.9258,
            "MeanMotion": 1.00271493,
            "RevolutionNumber": "564"
        }
    ]
}